[{"OBJECT_NAME":"STARLINK-32824","OBJECT_ID":"2025-018M","EPOCH":"2026-01-10T20:04:56.056224","MEAN_MOTION":15.30212757,"ECCENTRICITY":0.00018966,"INCLINATION":53.16,"RA_OF_ASC_NODE":218.1162,"ARG_OF_PERICENTER":95.8208,"MEAN_ANOMALY":264.3009,"EPHEMERIS_TYPE":0,"CLASSIFICATION_TYPE":"U","NORAD_CAT_ID":62817,"ELEMENT_SET_NO":999,"REV_AT_EPOCH":5526,"BSTAR":0.00084850561,"MEAN_MOTION_DOT":0.00024865,"MEAN_MOTION_DDOT":0},{"OBJECT_NAME":"STARLINK-32853","OBJECT_ID":"2025-018N","EPOCH":"2026-01-10T19:55:49.107936","MEAN_MOTION":15.30205165,"ECCENTRICITY":0.00014074,"INCLINATION":53.1594,"RA_OF_ASC_NODE":218.0776,"ARG_OF_PERICENTER":71.2418,"MEAN_ANOMALY":288.8735,"EPHEMERIS_TYPE":0,"CLASSIFICATION_TYPE":"U","NORAD_CAT_ID":62818,"ELEMENT_SET_NO":999,"REV_AT_EPOCH":5432,"BSTAR":0.00071364607,"MEAN_MOTION_DOT":0.0002084,"MEAN_MOTION_DDOT":0},{"OBJECT_NAME":"STARLINK-32856","OBJECT_ID":"2025-018P","EPOCH":"2026-01-10T20:29:14.799264","MEAN_MOTION":15.30195589,"ECCENTRICITY":0.00012945,"INCLINATION":53.1578,"RA_OF_ASC_NODE":218.2249,"ARG_OF_PERICENTER":92.6213,"MEAN_ANOMALY":267.4936,"EPHEMERIS_TYPE":0,"CLASSIFICATION_TYPE":"U","NORAD_CAT_ID":62819,"ELEMENT_SET_NO":999,"REV_AT_EPOCH":5432,"BSTAR":0.00074930888,"MEAN_MOTION_DOT":0.00021896,"MEAN_MOTION_DDOT":0},{"OBJECT_NAME":"STARLINK-32844","OBJECT_ID":"2025-018Q","EPOCH":"2026-01-10T20:33:48.403008","MEAN_MOTION":15.3020803,"ECCENTRICITY":0.00011927,"INCLINATION":53.1577,"RA_OF_ASC_NODE":218.2402,"ARG_OF_PERICENTER":84.2336,"MEAN_ANOMALY":275.8801,"EPHEMERIS_TYPE":0,"CLASSIFICATION_TYPE":"U","NORAD_CAT_ID":62820,"ELEMENT_SET_NO":999,"REV_AT_EPOCH":5431,"BSTAR":0.0011475203,"MEAN_MOTION_DOT":0.0003379,"MEAN_MOTION_DDOT":0},{"OBJECT_NAME":"STARLINK-32782","OBJECT_ID":"2025-018R","EPOCH":"2026-01-10T23:22:09.524640","MEAN_MOTION":15.30203285,"ECCENTRICITY":0.00010051,"INCLINATION":53.1589,"RA_OF_ASC_NODE":217.5502,"ARG_OF_PERICENTER":95.2685,"MEAN_ANOMALY":264.843,"EPHEMERIS_TYPE":0,"CLASSIFICATION_TYPE":"U","NORAD_CAT_ID":62821,"ELEMENT_SET_NO":999,"REV_AT_EPOCH":5434,"BSTAR":0.00054736352,"MEAN_MOTION_DOT":0.00015889,"MEAN_MOTION_DDOT":0},{"OBJECT_NAME":"STARLINK-32842","OBJECT_ID":"2025-018S","EPOCH":"2026-01-10T00:01:59.669184","MEAN_MOTION":15.30198377,"ECCENTRICITY":0.00012825,"INCLINATION":53.1578,"RA_OF_ASC_NODE":222.1486,"ARG_OF_PERICENTER":88.2112,"MEAN_ANOMALY":271.9036,"EPHEMERIS_TYPE":0,"CLASSIFICATION_TYPE":"U","NORAD_CAT_ID":62822,"ELEMENT_SET_NO":999,"REV_AT_EPOCH":5419,"BSTAR":0.00093912964,"MEAN_MOTION_DOT":0.00027557,"MEAN_MOTION_DDOT":0},{"OBJECT_NAME":"STARLINK-32823","OBJECT_ID":"2025-018T","EPOCH":"2026-01-10T23:08:28.862016","MEAN_MOTION":15.30205672,"ECCENTRICITY":0.00010264,"INCLINATION":53.1607,"RA_OF_ASC_NODE":217.4912,"ARG_OF_PERICENTER":75.7929,"MEAN_ANOMALY":284.3186,"EPHEMERIS_TYPE":0,"CLASSIFICATION_TYPE":"U","NORAD_CAT_ID":62823,"ELEMENT_SET_NO":999,"REV_AT_EPOCH":5434,"BSTAR":0.00095478599,"MEAN_MOTION_DOT":0.0002803,"MEAN_MOTION_DDOT":0},{"OBJECT_NAME":"STARLINK-32852","OBJECT_ID":"2025-018U","EPOCH":"2026-01-10T20:42:56.870208","MEAN_MOTION":15.30191672,"ECCENTRICITY":0.00013522,"INCLINATION":53.1577,"RA_OF_ASC_NODE":218.2829,"ARG_OF_PERICENTER":97.9615,"MEAN_ANOMALY":262.1539,"EPHEMERIS_TYPE":0,"CLASSIFICATION_TYPE":"U","NORAD_CAT_ID":62824,"ELEMENT_SET_NO":999,"REV_AT_EPOCH":5432,"BSTAR":0.00072651633,"MEAN_MOTION_DOT":0.00021214,"MEAN_MOTION_DDOT":0},{"OBJECT_NAME":"STARLINK-32825","OBJECT_ID":"2025-018V","EPOCH":"2026-01-10T22:38:51.490464","MEAN_MOTION":15.30181118,"ECCENTRICITY":0.00013348,"INCLINATION":53.158,"RA_OF_ASC_NODE":215.2293,"ARG_OF_PERICENTER":75.7038,"MEAN_ANOMALY":284.4111,"EPHEMERIS_TYPE":0,"CLASSIFICATION_TYPE":"U","NORAD_CAT_ID":62825,"ELEMENT_SET_NO":999,"REV_AT_EPOCH":5436,"BSTAR":0.00043139358,"MEAN_MOTION_DOT":0.00012431,"MEAN_MOTION_DDOT":0},{"OBJECT_NAME":"STARLINK-32704","OBJECT_ID":"2025-018W","EPOCH":"2026-01-10T20:30:46.444608","MEAN_MOTION":15.30204262,"ECCENTRICITY":0.00011682,"INCLINATION":53.1581,"RA_OF_ASC_NODE":218.2495,"ARG_OF_PERICENTER":91.0566,"MEAN_ANOMALY":269.0569,"EPHEMERIS_TYPE":0,"CLASSIFICATION_TYPE":"U","NORAD_CAT_ID":62826,"ELEMENT_SET_NO":999,"REV_AT_EPOCH":5431,"BSTAR":0.0011326283,"MEAN_MOTION_DOT":0.00033341,"MEAN_MOTION_DDOT":0},{"OBJECT_NAME":"STARLINK-32727","OBJECT_ID":"2025-018Y","EPOCH":"2026-01-10T20:32:52.970496","MEAN_MOTION":15.30203786,"ECCENTRICITY":0.00011253,"INCLINATION":53.157,"RA_OF_ASC_NODE":215.3961,"ARG_OF_PERICENTER":86.0142,"MEAN_ANOMALY":274.0987,"EPHEMERIS_TYPE":0,"CLASSIFICATION_TYPE":"U","NORAD_CAT_ID":62828,"ELEMENT_SET_NO":999,"REV_AT_EPOCH":5530,"BSTAR":0.00069331341,"MEAN_MOTION_DOT":0.00020233,"MEAN_MOTION_DDOT":0},{"OBJECT_NAME":"STARLINK-11548 [DTC]","OBJECT_ID":"2025-019A","EPOCH":"2026-01-10T19:50:31.042752","MEAN_MOTION":15.70917891,"ECCENTRICITY":0.00024057,"INCLINATION":42.9982,"RA_OF_ASC_NODE":294.4738,"ARG_OF_PERICENTER":257.595,"MEAN_ANOMALY":102.4648,"EPHEMERIS_TYPE":0,"CLASSIFICATION_TYPE":"U","NORAD_CAT_ID":62829,"ELEMENT_SET_NO":999,"REV_AT_EPOCH":5478,"BSTAR":0.0025293257,"MEAN_MOTION_DOT":0.0033879,"MEAN_MOTION_DDOT":0},{"OBJECT_NAME":"STARLINK-11480 [DTC]","OBJECT_ID":"2025-019B","EPOCH":"2026-01-10T18:49:31.975104","MEAN_MOTION":15.7097851,"ECCENTRICITY":0.00030779,"INCLINATION":43.0033,"RA_OF_ASC_NODE":295.0271,"ARG_OF_PERICENTER":260.0797,"MEAN_ANOMALY":99.9723,"EPHEMERIS_TYPE":0,"CLASSIFICATION_TYPE":"U","NORAD_CAT_ID":62830,"ELEMENT_SET_NO":999,"REV_AT_EPOCH":5477,"BSTAR":0.002219863,"MEAN_MOTION_DOT":0.00296524,"MEAN_MOTION_DDOT":0},{"OBJECT_NAME":"STARLINK-11559 [DTC]","OBJECT_ID":"2025-019C","EPOCH":"2026-01-10T04:19:49.310976","MEAN_MOTION":15.70842484,"ECCENTRICITY":0.00016383,"INCLINATION":42.9997,"RA_OF_ASC_NODE":299.116,"ARG_OF_PERICENTER":272.0014,"MEAN_ANOMALY":88.0666,"EPHEMERIS_TYPE":0,"CLASSIFICATION_TYPE":"U","NORAD_CAT_ID":62831,"ELEMENT_SET_NO":999,"REV_AT_EPOCH":5467,"BSTAR":0.001964799,"MEAN_MOTION_DOT":0.00259727,"MEAN_MOTION_DDOT":0},{"OBJECT_NAME":"STARLINK-11549 [DTC]","OBJECT_ID":"2025-019D","EPOCH":"2026-01-10T22:15:35.743392","MEAN_MOTION":15.70882629,"ECCENTRICITY":0.00013491,"INCLINATION":42.9983,"RA_OF_ASC_NODE":294.3888,"ARG_OF_PERICENTER":225.2431,"MEAN_ANOMALY":134.8327,"EPHEMERIS_TYPE":0,"CLASSIFICATION_TYPE":"U","NORAD_CAT_ID":62832,"ELEMENT_SET_NO":999,"REV_AT_EPOCH":5479,"BSTAR":0.00093146585,"MEAN_MOTION_DOT":0.00121043,"MEAN_MOTION_DDOT":0},{"OBJECT_NAME":"STARLINK-11554 [DTC]","OBJECT_ID":"2025-019E","EPOCH":"2026-01-10T22:23:14.560224","MEAN_MOTION":15.70871621,"ECCENTRICITY":0.0001612,"INCLINATION":42.9995,"RA_OF_ASC_NODE":294.4298,"ARG_OF_PERICENTER":226.7821,"MEAN_ANOMALY":133.2912,"EPHEMERIS_TYPE":0,"CLASSIFICATION_TYPE":"U","NORAD_CAT_ID":62833,"ELEMENT_SET_NO":999,"REV_AT_EPOCH":5479,"BSTAR":0.0011645929,"MEAN_MOTION_DOT":0.00151949,"MEAN_MOTION_DDOT":0},{"OBJECT_NAME":"STARLINK-11520 [DTC]","OBJECT_ID":"2025-019F","EPOCH":"2026-01-10T19:58:09.110496","MEAN_MOTION":15.7098327,"ECCENTRICITY":0.0001232,"INCLINATION":42.9976,"RA_OF_ASC_NODE":294.5133,"ARG_OF_PERICENTER":232.5414,"MEAN_ANOMALY":127.5342,"EPHEMERIS_TYPE":0,"CLASSIFICATION_TYPE":"U","NORAD_CAT_ID":62834,"ELEMENT_SET_NO":999,"REV_AT_EPOCH":5479,"BSTAR":0.0015236175,"MEAN_MOTION_DOT":0.00201061,"MEAN_MOTION_DDOT":0},{"OBJECT_NAME":"STARLINK-11546 [DTC]","OBJECT_ID":"2025-019G","EPOCH":"2026-01-10T19:43:03.495072","MEAN_MOTION":15.70969776,"ECCENTRICITY":0.00020051,"INCLINATION":42.9985,"RA_OF_ASC_NODE":295.3238,"ARG_OF_PERICENTER":237.302,"MEAN_ANOMALY":122.7654,"EPHEMERIS_TYPE":0,"CLASSIFICATION_TYPE":"U","NORAD_CAT_ID":62835,"ELEMENT_SET_NO":999,"REV_AT_EPOCH":5477,"BSTAR":0.0016198456,"MEAN_MOTION_DOT":0.00214006,"MEAN_MOTION_DDOT":0},{"OBJECT_NAME":"STARLINK-11533 [DTC]","OBJECT_ID":"2025-019H","EPOCH":"2026-01-10T18:57:11.210976","MEAN_MOTION":15.71037396,"ECCENTRICITY":0.00018664,"INCLINATION":42.9998,"RA_OF_ASC_NODE":295.0677,"ARG_OF_PERICENTER":240.9161,"MEAN_ANOMALY":119.152,"EPHEMERIS_TYPE":0,"CLASSIFICATION_TYPE":"U","NORAD_CAT_ID":62836,"ELEMENT_SET_NO":999,"REV_AT_EPOCH":5477,"BSTAR":0.0025294219,"MEAN_MOTION_DOT":0.00340579,"MEAN_MOTION_DDOT":0},{"OBJECT_NAME":"STARLINK-11557 [DTC]","OBJECT_ID":"2025-019J","EPOCH":"2026-01-10T20:05:47.947200","MEAN_MOTION":15.70965397,"ECCENTRICITY":0.00033837,"INCLINATION":43.0002,"RA_OF_ASC_NODE":294.5553,"ARG_OF_PERICENTER":292.8369,"MEAN_ANOMALY":67.2142,"EPHEMERIS_TYPE":0,"CLASSIFICATION_TYPE":"U","NORAD_CAT_ID":62837,"ELEMENT_SET_NO":999,"REV_AT_EPOCH":5478,"BSTAR":0.0016824197,"MEAN_MOTION_DOT":0.00222504,"MEAN_MOTION_DDOT":0},{"OBJECT_NAME":"STARLINK-11556 [DTC]","OBJECT_ID":"2025-019K","EPOCH":"2026-01-10T19:59:28.754016","MEAN_MOTION":15.70993559,"ECCENTRICITY":0.00046153,"INCLINATION":43,"RA_OF_ASC_NODE":294.5195,"ARG_OF_PERICENTER":280.9164,"MEAN_ANOMALY":79.1184,"EPHEMERIS_TYPE":0,"CLASSIFICATION_TYPE":"U","NORAD_CAT_ID":62838,"ELEMENT_SET_NO":999,"REV_AT_EPOCH":5478,"BSTAR":0.0017447251,"MEAN_MOTION_DOT":0.00231326,"MEAN_MOTION_DDOT":0},{"OBJECT_NAME":"STARLINK-11524 [DTC]","OBJECT_ID":"2025-019L","EPOCH":"2026-01-10T22:30:53.686368","MEAN_MOTION":15.70938225,"ECCENTRICITY":0.00011777,"INCLINATION":42.9989,"RA_OF_ASC_NODE":294.4703,"ARG_OF_PERICENTER":257.9743,"MEAN_ANOMALY":102.0993,"EPHEMERIS_TYPE":0,"CLASSIFICATION_TYPE":"U","NORAD_CAT_ID":62839,"ELEMENT_SET_NO":999,"REV_AT_EPOCH":5479,"BSTAR":0.0013345316,"MEAN_MOTION_DOT":0.00175167,"MEAN_MOTION_DDOT":0},{"OBJECT_NAME":"STARLINK-11551 [DTC]","OBJECT_ID":"2025-019M","EPOCH":"2026-01-10T20:13:27.507936","MEAN_MOTION":15.70854325,"ECCENTRICITY":0.00027568,"INCLINATION":42.9994,"RA_OF_ASC_NODE":294.5965,"ARG_OF_PERICENTER":288.6274,"MEAN_ANOMALY":71.4294,"EPHEMERIS_TYPE":0,"CLASSIFICATION_TYPE":"U","NORAD_CAT_ID":62840,"ELEMENT_SET_NO":999,"REV_AT_EPOCH":5478,"BSTAR":0.0020007762,"MEAN_MOTION_DOT":0.00264797,"MEAN_MOTION_DDOT":0}]
